CCSDS_OMM_VERS = 2.0
CREATION_DATE  = 
ORIGINATOR     = 

OBJECT_NAME    = STARLINK-36156
OBJECT_ID      = 2025-293D
CENTER_NAME    = EARTH
REF_FRAME      = TEME
TIME_SYSTEM    = UTC
MEAN_ELEMENT_THEORY = SGP/SGP4

EPOCH          = 2026-01-04T20:00:01.999872
MEAN_MOTION    = 15.52556436
ECCENTRICITY   = .000305
INCLINATION    = 69.9999
RA_OF_ASC_NODE = 258.2312
ARG_OF_PERICENTER = 266.7575
MEAN_ANOMALY   = 92.5012

EPHEMERIS_TYPE = 0
CLASSIFICATION_TYPE = U
NORAD_CAT_ID   = 67006
ELEMENT_SET_NO = 999
REV_AT_EPOCH   = 386
BSTAR          = -.11064E-2
MEAN_MOTION_DOT = -.67744E-3
MEAN_MOTION_DDOT = 0

CCSDS_OMM_VERS = 2.0
CREATION_DATE  = 
ORIGINATOR     = 

OBJECT_NAME    = STARLINK-36123
OBJECT_ID      = 2025-293E
CENTER_NAME    = EARTH
REF_FRAME      = TEME
TIME_SYSTEM    = UTC
MEAN_ELEMENT_THEORY = SGP/SGP4

EPOCH          = 2026-01-04T20:00:01.999872
MEAN_MOTION    = 15.52579104
ECCENTRICITY   = .0002727
INCLINATION    = 69.9999
RA_OF_ASC_NODE = 258.2329
ARG_OF_PERICENTER = 271.9240
MEAN_ANOMALY   = 85.4228

EPHEMERIS_TYPE = 0
CLASSIFICATION_TYPE = U
NORAD_CAT_ID   = 67007
ELEMENT_SET_NO = 999
REV_AT_EPOCH   = 386
BSTAR          = -.19518E-2
MEAN_MOTION_DOT = -.118713E-2
MEAN_MOTION_DDOT = 0

CCSDS_OMM_VERS = 2.0
CREATION_DATE  = 
ORIGINATOR     = 

OBJECT_NAME    = STARLINK-36163
OBJECT_ID      = 2025-293F
CENTER_NAME    = EARTH
REF_FRAME      = TEME
TIME_SYSTEM    = UTC
MEAN_ELEMENT_THEORY = SGP/SGP4

EPOCH          = 2026-01-04T20:00:01.999872
MEAN_MOTION    = 15.52576157
ECCENTRICITY   = .0002973
INCLINATION    = 69.9999
RA_OF_ASC_NODE = 258.2284
ARG_OF_PERICENTER = 265.9685
MEAN_ANOMALY   = 95.2077

EPHEMERIS_TYPE = 0
CLASSIFICATION_TYPE = U
NORAD_CAT_ID   = 67008
ELEMENT_SET_NO = 999
REV_AT_EPOCH   = 386
BSTAR          = -.18831E-2
MEAN_MOTION_DOT = -.114595E-2
MEAN_MOTION_DDOT = 0

CCSDS_OMM_VERS = 2.0
CREATION_DATE  = 
ORIGINATOR     = 

OBJECT_NAME    = STARLINK-36118
OBJECT_ID      = 2025-293G
CENTER_NAME    = EARTH
REF_FRAME      = TEME
TIME_SYSTEM    = UTC
MEAN_ELEMENT_THEORY = SGP/SGP4

EPOCH          = 2026-01-04T20:00:01.999872
MEAN_MOTION    = 15.52602721
ECCENTRICITY   = .0003427
INCLINATION    = 69.9998
RA_OF_ASC_NODE = 258.2269
ARG_OF_PERICENTER = 267.8242
MEAN_ANOMALY   = 95.2534

EPHEMERIS_TYPE = 0
CLASSIFICATION_TYPE = U
NORAD_CAT_ID   = 67009
ELEMENT_SET_NO = 999
REV_AT_EPOCH   = 380
BSTAR          = -.22491E-2
MEAN_MOTION_DOT = -.136598E-2
MEAN_MOTION_DDOT = 0

CCSDS_OMM_VERS = 2.0
CREATION_DATE  = 
ORIGINATOR     = 

OBJECT_NAME    = STARLINK-36189
OBJECT_ID      = 2025-293H
CENTER_NAME    = EARTH
REF_FRAME      = TEME
TIME_SYSTEM    = UTC
MEAN_ELEMENT_THEORY = SGP/SGP4

EPOCH          = 2026-01-04T20:00:01.999872
MEAN_MOTION    = 15.52550199
ECCENTRICITY   = .0003134
INCLINATION    = 69.9998
RA_OF_ASC_NODE = 258.2223
ARG_OF_PERICENTER = 265.0309
MEAN_ANOMALY   = 101.8967

EPHEMERIS_TYPE = 0
CLASSIFICATION_TYPE = U
NORAD_CAT_ID   = 67010
ELEMENT_SET_NO = 999
REV_AT_EPOCH   = 386
BSTAR          = -.654E-3
MEAN_MOTION_DOT = -.40243E-3
MEAN_MOTION_DDOT = 0

CCSDS_OMM_VERS = 2.0
CREATION_DATE  = 
ORIGINATOR     = 

OBJECT_NAME    = STARLINK-36167
OBJECT_ID      = 2025-293J
CENTER_NAME    = EARTH
REF_FRAME      = TEME
TIME_SYSTEM    = UTC
MEAN_ELEMENT_THEORY = SGP/SGP4

EPOCH          = 2026-01-04T20:00:01.999872
MEAN_MOTION    = 15.52615557
ECCENTRICITY   = .0003237
INCLINATION    = 69.9999
RA_OF_ASC_NODE = 258.2249
ARG_OF_PERICENTER = 266.9352
MEAN_ANOMALY   = 98.0549

EPHEMERIS_TYPE = 0
CLASSIFICATION_TYPE = U
NORAD_CAT_ID   = 67011
ELEMENT_SET_NO = 999
REV_AT_EPOCH   = 380
BSTAR          = -.2677E-2
MEAN_MOTION_DOT = -.162111E-2
MEAN_MOTION_DDOT = 0

CCSDS_OMM_VERS = 2.0
CREATION_DATE  = 
ORIGINATOR     = 

OBJECT_NAME    = STARLINK-36175
OBJECT_ID      = 2025-293K
CENTER_NAME    = EARTH
REF_FRAME      = TEME
TIME_SYSTEM    = UTC
MEAN_ELEMENT_THEORY = SGP/SGP4

EPOCH          = 2026-01-04T20:00:01.999872
MEAN_MOTION    = 15.52544388
ECCENTRICITY   = .000331
INCLINATION    = 69.9998
RA_OF_ASC_NODE = 258.2200
ARG_OF_PERICENTER = 266.6017
MEAN_ANOMALY   = 102.2393

EPHEMERIS_TYPE = 0
CLASSIFICATION_TYPE = U
NORAD_CAT_ID   = 67012
ELEMENT_SET_NO = 999
REV_AT_EPOCH   = 380
BSTAR          = -.30985E-3
MEAN_MOTION_DOT = -.19202E-3
MEAN_MOTION_DDOT = 0

CCSDS_OMM_VERS = 2.0
CREATION_DATE  = 
ORIGINATOR     = 

OBJECT_NAME    = STARLINK-35856
OBJECT_ID      = 2025-293L
CENTER_NAME    = EARTH
REF_FRAME      = TEME
TIME_SYSTEM    = UTC
MEAN_ELEMENT_THEORY = SGP/SGP4

EPOCH          = 2026-01-04T20:00:01.999872
MEAN_MOTION    = 15.52610077
ECCENTRICITY   = .0003442
INCLINATION    = 69.9998
RA_OF_ASC_NODE = 258.2174
ARG_OF_PERICENTER = 266.5240
MEAN_ANOMALY   = 104.2172

EPHEMERIS_TYPE = 0
CLASSIFICATION_TYPE = U
NORAD_CAT_ID   = 67013
ELEMENT_SET_NO = 999
REV_AT_EPOCH   = 380
BSTAR          = -.24778E-2
MEAN_MOTION_DOT = -.150257E-2
MEAN_MOTION_DDOT = 0

CCSDS_OMM_VERS = 2.0
CREATION_DATE  = 
ORIGINATOR     = 

OBJECT_NAME    = STARLINK-36207
OBJECT_ID      = 2025-293M
CENTER_NAME    = EARTH
REF_FRAME      = TEME
TIME_SYSTEM    = UTC
MEAN_ELEMENT_THEORY = SGP/SGP4

EPOCH          = 2026-01-04T19:56:46.929408
MEAN_MOTION    = 15.52594840
ECCENTRICITY   = .0003803
INCLINATION    = 69.9985
RA_OF_ASC_NODE = 258.2211
ARG_OF_PERICENTER = 271.7332
MEAN_ANOMALY   = 88.3419

EPHEMERIS_TYPE = 0
CLASSIFICATION_TYPE = U
NORAD_CAT_ID   = 67014
ELEMENT_SET_NO = 999
REV_AT_EPOCH   = 525
BSTAR          = .17885E-2
MEAN_MOTION_DOT = .111731E-2
MEAN_MOTION_DDOT = 0

CCSDS_OMM_VERS = 2.0
CREATION_DATE  = 
ORIGINATOR     = 

OBJECT_NAME    = STARLINK-36093
OBJECT_ID      = 2025-293N
CENTER_NAME    = EARTH
REF_FRAME      = TEME
TIME_SYSTEM    = UTC
MEAN_ELEMENT_THEORY = SGP/SGP4

EPOCH          = 2026-01-04T19:55:47.671968
MEAN_MOTION    = 15.52593897
ECCENTRICITY   = .0003794
INCLINATION    = 69.9984
RA_OF_ASC_NODE = 258.2185
ARG_OF_PERICENTER = 264.1608
MEAN_ANOMALY   = 95.9146

EPHEMERIS_TYPE = 0
CLASSIFICATION_TYPE = U
NORAD_CAT_ID   = 67015
ELEMENT_SET_NO = 999
REV_AT_EPOCH   = 525
BSTAR          = .17496E-2
MEAN_MOTION_DOT = .109262E-2
MEAN_MOTION_DDOT = 0

CCSDS_OMM_VERS = 2.0
CREATION_DATE  = 
ORIGINATOR     = 

OBJECT_NAME    = STARLINK-36120
OBJECT_ID      = 2025-293P
CENTER_NAME    = EARTH
REF_FRAME      = TEME
TIME_SYSTEM    = UTC
MEAN_ELEMENT_THEORY = SGP/SGP4

EPOCH          = 2026-01-04T19:56:17.491200
MEAN_MOTION    = 15.52543448
ECCENTRICITY   = .0003366
INCLINATION    = 69.9987
RA_OF_ASC_NODE = 258.2210
ARG_OF_PERICENTER = 265.8386
MEAN_ANOMALY   = 94.2416

EPHEMERIS_TYPE = 0
CLASSIFICATION_TYPE = U
NORAD_CAT_ID   = 67016
ELEMENT_SET_NO = 999
REV_AT_EPOCH   = 525
BSTAR          = .18154E-2
MEAN_MOTION_DOT = .113221E-2
MEAN_MOTION_DDOT = 0

CCSDS_OMM_VERS = 2.0
CREATION_DATE  = 
ORIGINATOR     = 

OBJECT_NAME    = STARLINK-35498
OBJECT_ID      = 2025-293Q
CENTER_NAME    = EARTH
REF_FRAME      = TEME
TIME_SYSTEM    = UTC
MEAN_ELEMENT_THEORY = SGP/SGP4

EPOCH          = 2026-01-04T19:55:18.185376
MEAN_MOTION    = 15.52570729
ECCENTRICITY   = .0003731
INCLINATION    = 69.9986
RA_OF_ASC_NODE = 258.2171
ARG_OF_PERICENTER = 270.8550
MEAN_ANOMALY   = 89.2209

EPHEMERIS_TYPE = 0
CLASSIFICATION_TYPE = U
NORAD_CAT_ID   = 67017
ELEMENT_SET_NO = 999
REV_AT_EPOCH   = 525
BSTAR          = .12852E-2
MEAN_MOTION_DOT = .79852E-3
MEAN_MOTION_DDOT = 0

CCSDS_OMM_VERS = 2.0
CREATION_DATE  = 
ORIGINATOR     = 

OBJECT_NAME    = STARLINK-36106
OBJECT_ID      = 2025-293R
CENTER_NAME    = EARTH
REF_FRAME      = TEME
TIME_SYSTEM    = UTC
MEAN_ELEMENT_THEORY = SGP/SGP4

EPOCH          = 2026-01-04T02:54:13.913568
MEAN_MOTION    = 15.52559138
ECCENTRICITY   = .00036169
INCLINATION    = 69.9992
RA_OF_ASC_NODE = 260.1575
ARG_OF_PERICENTER = 274.1085
MEAN_ANOMALY   = 85.9688

EPHEMERIS_TYPE = 0
CLASSIFICATION_TYPE = U
NORAD_CAT_ID   = 67018
ELEMENT_SET_NO = 999
REV_AT_EPOCH   = 514
BSTAR          = .19905854E-2
MEAN_MOTION_DOT = .124413E-2
MEAN_MOTION_DDOT = 0

CCSDS_OMM_VERS = 2.0
CREATION_DATE  = 
ORIGINATOR     = 

OBJECT_NAME    = STARLINK-35688
OBJECT_ID      = 2025-293S
CENTER_NAME    = EARTH
REF_FRAME      = TEME
TIME_SYSTEM    = UTC
MEAN_ELEMENT_THEORY = SGP/SGP4

EPOCH          = 2026-01-04T16:00:03.000096
MEAN_MOTION    = 15.52539831
ECCENTRICITY   = .0003259
INCLINATION    = 69.9995
RA_OF_ASC_NODE = 258.6605
ARG_OF_PERICENTER = 268.1487
MEAN_ANOMALY   = 262.9512

EPHEMERIS_TYPE = 0
CLASSIFICATION_TYPE = U
NORAD_CAT_ID   = 67019
ELEMENT_SET_NO = 999
REV_AT_EPOCH   = 397
BSTAR          = -.53524E-3
MEAN_MOTION_DOT = -.32984E-3
MEAN_MOTION_DDOT = 0

CCSDS_OMM_VERS = 2.0
CREATION_DATE  = 
ORIGINATOR     = 

OBJECT_NAME    = STARLINK-36172
OBJECT_ID      = 2025-293T
CENTER_NAME    = EARTH
REF_FRAME      = TEME
TIME_SYSTEM    = UTC
MEAN_ELEMENT_THEORY = SGP/SGP4

EPOCH          = 2026-01-04T16:00:03.000096
MEAN_MOTION    = 15.52511855
ECCENTRICITY   = .0003303
INCLINATION    = 69.9993
RA_OF_ASC_NODE = 258.6578
ARG_OF_PERICENTER = 267.9934
MEAN_ANOMALY   = 265.0185

EPHEMERIS_TYPE = 0
CLASSIFICATION_TYPE = U
NORAD_CAT_ID   = 67020
ELEMENT_SET_NO = 999
REV_AT_EPOCH   = 389
BSTAR          = .54972E-3
MEAN_MOTION_DOT = .33787E-3
MEAN_MOTION_DDOT = 0

